{
  "type": "FeatureCollection",
  "features": [
    {
      "type": "Feature",
      "properties": {
        "norad_id": 33791,
        "name": "COSMOS 2251 DEB",
        "group": "cosmos-2251-debris",
        "lat": 51.702277682604695,
        "lon": -177.41768056569003,
        "alt_km": 744.4257323086622,
        "timestamp": "2025-12-20T07:33:51.205542+00:00",
        "meta_object_name": "COSMOS 2251 DEB",
        "meta_object_id": "1993-036AG",
        "meta_epoch": "2025-12-19T13:25:43.746240",
        "meta_mean_motion": 14.43157228,
        "meta_eccentricity": 0.003029,
        "meta_inclination": 74.1748,
        "meta_ra_of_asc_node": 25.0224,
        "meta_arg_of_pericenter": 221.0189,
        "meta_mean_anomaly": 300.3689,
        "meta_ephemeris_type": 0,
        "meta_classification_type": "U",
        "meta_norad_cat_id": 33791,
        "meta_element_set_no": 999,
        "meta_rev_at_epoch": 88150,
        "meta_bstar": 0.0005792,
        "meta_mean_motion_dot": 1.931e-05,
        "meta_mean_motion_ddot": 0,
        "tle_line1": "1 33791U 93036AG  25353.55953410  .00001931  00000+0  57920-3 0  9993",
        "tle_line2": "2 33791  74.1748  25.0224 0030290 221.0189 300.3689 14.43157228881506"
      },
      "geometry": {
        "type": "Point",
        "coordinates": [
          -177.41768056569003,
          51.702277682604695
        ]
      }
    },
    {
      "type": "Feature",
      "properties": {
        "norad_id": 33792,
        "name": "COSMOS 2251 DEB",
        "group": "cosmos-2251-debris",
        "lat": 41.46567747820849,
        "lon": -11.968532751192605,
        "alt_km": 766.9349856724766,
        "timestamp": "2025-12-20T07:33:51.205555+00:00",
        "meta_object_name": "COSMOS 2251 DEB",
        "meta_object_id": "1993-036AH",
        "meta_epoch": "2025-12-19T22:35:59.041248",
        "meta_mean_motion": 13.45834975,
        "meta_eccentricity": 0.04274909,
        "meta_inclination": 73.9011,
        "meta_ra_of_asc_node": 333.843,
        "meta_arg_of_pericenter": 37.1702,
        "meta_mean_anomaly": 356.8393,
        "meta_ephemeris_type": 0,
        "meta_classification_type": "U",
        "meta_norad_cat_id": 33792,
        "meta_element_set_no": 999,
        "meta_rev_at_epoch": 82539,
        "meta_bstar": 0.00079429731,
        "meta_mean_motion_dot": 8.04e-06,
        "meta_mean_motion_ddot": 0,
        "tle_line1": "1 33792U 93036AH  25353.94165557  .00000804  00000+0  79430-3 0  9992",
        "tle_line2": "2 33792  73.9011 333.8430 0427490  37.1702 356.8393 13.45834975825390"
      },
      "geometry": {
        "type": "Point",
        "coordinates": [
          -11.968532751192605,
          41.46567747820849
        ]
      }
    },
    {
      "type": "Feature",
      "properties": {
        "norad_id": 33793,
        "name": "COSMOS 2251 DEB",
        "group": "cosmos-2251-debris",
        "lat": -47.18814879658307,
        "lon": 118.08260718965883,
        "alt_km": 754.6413728040006,
        "timestamp": "2025-12-20T07:33:51.205566+00:00",
        "meta_object_name": "COSMOS 2251 DEB",
        "meta_object_id": "1993-036AJ",
        "meta_epoch": "2025-12-19T20:36:01.325952",
        "meta_mean_motion": 14.27744552,
        "meta_eccentricity": 0.00787538,
        "meta_inclination": 73.9804,
        "meta_ra_of_asc_node": 136.9795,
        "meta_arg_of_pericenter": 285.6798,
        "meta_mean_anomaly": 197.1544,
        "meta_ephemeris_type": 0,
        "meta_classification_type": "U",
        "meta_norad_cat_id": 33793,
        "meta_element_set_no": 999,
        "meta_rev_at_epoch": 87308,
        "meta_bstar": 0.00050526759,
        "meta_mean_motion_dot": 1.263e-05,
        "meta_mean_motion_ddot": 0,
        "tle_line1": "1 33793U 93036AJ  25353.85834868  .00001263  00000+0  50527-3 0  9997",
        "tle_line2": "2 33793  73.9804 136.9795 0078753 285.6798 197.1544 14.27744552873081"
      },
      "geometry": {
        "type": "Point",
        "coordinates": [
          118.08260718965883,
          -47.18814879658307
        ]
      }
    },
    {
      "type": "Feature",
      "properties": {
        "norad_id": 33795,
        "name": "COSMOS 2251 DEB",
        "group": "cosmos-2251-debris",
        "lat": -37.55998518243917,
        "lon": -106.07796690963987,
        "alt_km": 550.5272191239383,
        "timestamp": "2025-12-20T07:33:51.205577+00:00",
        "meta_object_name": "COSMOS 2251 DEB",
        "meta_object_id": "1993-036AL",
        "meta_epoch": "2025-12-19T23:23:16.203840",
        "meta_mean_motion": 15.05744377,
        "meta_eccentricity": 0.00305818,
        "meta_inclination": 74.0325,
        "meta_ra_of_asc_node": 61.9006,
        "meta_arg_of_pericenter": 142.824,
        "meta_mean_anomaly": 30.1422,
        "meta_ephemeris_type": 0,
        "meta_classification_type": "U",
        "meta_norad_cat_id": 33795,
        "meta_element_set_no": 999,
        "meta_rev_at_epoch": 90130,
        "meta_bstar": 0.00077817228,
        "meta_mean_motion_dot": 0.00011361,
        "meta_mean_motion_ddot": 0,
        "tle_line1": "1 33795U 93036AL  25353.97449310  .00011361  00000+0  77817-3 0  9997",
        "tle_line2": "2 33795  74.0325  61.9006 0030581 142.8240  30.1422 15.05744377901308"
      },
      "geometry": {
        "type": "Point",
        "coordinates": [
          -106.07796690963987,
          -37.55998518243917
        ]
      }
    },
    {
      "type": "Feature",
      "properties": {
        "norad_id": 33797,
        "name": "COSMOS 2251 DEB",
        "group": "cosmos-2251-debris",
        "lat": 2.6210189753314994,
        "lon": -160.18786082427906,
        "alt_km": 688.1549425293542,
        "timestamp": "2025-12-20T07:33:51.205587+00:00",
        "meta_object_name": "COSMOS 2251 DEB",
        "meta_object_id": "1993-036AN",
        "meta_epoch": "2025-12-19T11:29:44.843136",
        "meta_mean_motion": 14.57869848,
        "meta_eccentricity": 0.0060455,
        "meta_inclination": 74.0466,
        "meta_ra_of_asc_node": 22.151,
        "meta_arg_of_pericenter": 107.9936,
        "meta_mean_anomaly": 1.735,
        "meta_ephemeris_type": 0,
        "meta_classification_type": "U",
        "meta_norad_cat_id": 33797,
        "meta_element_set_no": 999,
        "meta_rev_at_epoch": 89083,
        "meta_bstar": 0.00025982,
        "meta_mean_motion_dot": 1.191e-05,
        "meta_mean_motion_ddot": 0,
        "tle_line1": "1 33797U 93036AN  25353.47899124  .00001191  00000+0  25982-3 0  9992",
        "tle_line2": "2 33797  74.0466  22.1510 0060455 107.9936   1.7350 14.57869848890838"
      },
      "geometry": {
        "type": "Point",
        "coordinates": [
          -160.18786082427906,
          2.6210189753314994
        ]
      }
    },
    {
      "type": "Feature",
      "properties": {
        "norad_id": 33798,
        "name": "COSMOS 2251 DEB",
        "group": "cosmos-2251-debris",
        "lat": 52.03456854893576,
        "lon": 143.3267967934032,
        "alt_km": 803.470690482678,
        "timestamp": "2025-12-20T07:33:51.205598+00:00",
        "meta_object_name": "COSMOS 2251 DEB",
        "meta_object_id": "1993-036AP",
        "meta_epoch": "2025-12-19T20:15:20.972736",
        "meta_mean_motion": 14.4462273,
        "meta_eccentricity": 0.00924024,
        "meta_inclination": 74.029,
        "meta_ra_of_asc_node": 122.6727,
        "meta_arg_of_pericenter": 242.4984,
        "meta_mean_anomaly": 243.0738,
        "meta_ephemeris_type": 0,
        "meta_classification_type": "U",
        "meta_norad_cat_id": 33798,
        "meta_element_set_no": 999,
        "meta_rev_at_epoch": 88696,
        "meta_bstar": 0.00012748564,
        "meta_mean_motion_dot": 4.35e-06,
        "meta_mean_motion_ddot": 0,
        "tle_line1": "1 33798U 93036AP  25353.84399274  .00000435  00000+0  12749-3 0  9992",
        "tle_line2": "2 33798  74.0290 122.6727 0092402 242.4984 243.0738 14.44622730886968"
      },
      "geometry": {
        "type": "Point",
        "coordinates": [
          143.3267967934032,
          52.03456854893576
        ]
      }
    },
    {
      "type": "Feature",
      "properties": {
        "norad_id": 33799,
        "name": "COSMOS 2251 DEB",
        "group": "cosmos-2251-debris",
        "lat": 6.171513002411566,
        "lon": -114.90355854143597,
        "alt_km": 619.5618123800314,
        "timestamp": "2025-12-20T07:33:51.205609+00:00",
        "meta_object_name": "COSMOS 2251 DEB",
        "meta_object_id": "1993-036AQ",
        "meta_epoch": "2025-12-19T14:52:34.207104",
        "meta_mean_motion": 14.79698147,
        "meta_eccentricity": 0.0022784,
        "meta_inclination": 74.0325,
        "meta_ra_of_asc_node": 68.2393,
        "meta_arg_of_pericenter": 136.5216,
        "meta_mean_anomaly": 294.3275,
        "meta_ephemeris_type": 0,
        "meta_classification_type": "U",
        "meta_norad_cat_id": 33799,
        "meta_element_set_no": 999,
        "meta_rev_at_epoch": 88913,
        "meta_bstar": 0.00074895,
        "meta_mean_motion_dot": 5.621e-05,
        "meta_mean_motion_ddot": 0,
        "tle_line1": "1 33799U 93036AQ  25353.61984036  .00005621  00000+0  74895-3 0  9996",
        "tle_line2": "2 33799  74.0325  68.2393 0022784 136.5216 294.3275 14.79698147889139"
      },
      "geometry": {
        "type": "Point",
        "coordinates": [
          -114.90355854143597,
          6.171513002411566
        ]
      }
    }
  ]
}